FENGYUN 1C DEB          
1 31931U 99025CMG 17339.82206180  .00000106  00000-0  14940-3 0  9990
2 31931  97.7936 189.7957 0434517 292.1539  63.4026 13.38914607259965
